start=new Date('2023-03-09T00:00:00.000Z').valueOf();
sats=[{"ELEMENT_SET_NO":"999","TIME_SYSTEM":"UTC","RCS_SIZE":"LARGE","MEAN_MOTION_DOT":"0.00000653","OBJECT_NAME":"STARLINK-1076","MEAN_ANOMALY":"267.3309","MEAN_MOTION":"15.06390443","EPHEMERIS_TYPE":"0","REF_FRAME":"TEME","COUNTRY_CODE":"US","OBJECT_ID":"2020-001AX","OBJECT_TYPE":"PAYLOAD","NORAD_CAT_ID":"44959","MEAN_ELEMENT_THEORY":"SGP4","EPOCH":"2023-03-08T08:54:43.932384","INCLINATION":"53.0538","TLE_LINE1":"1 44959U 20001AX  23067.37134181  .00000653  00000-0  62713-4 0  9997","REV_AT_EPOCH":"17501","CLASSIFICATION_TYPE":"U","ARG_OF_PERICENTER":"92.7836","ECCENTRICITY":"0.00013660","DECAY_DATE":null,"LAUNCH_DATE":"2020-01-07","FILE":"3855077","MEAN_MOTION_DDOT":"0.0000000000000","PERIOD":"95.593","SITE":"AFETR","CENTER_NAME":"EARTH","TLE_LINE2":"2 44959  53.0538 192.6711 0001366  92.7836 267.3309 15.06390443175014","RA_OF_ASC_NODE":"192.6711","GP_ID":"227717881","APOAPSIS":"548.189","SEMIMAJOR_AXIS":"6925.378","BSTAR":"0.00006271300000","PERIAPSIS":"546.297"},{"SEMIMAJOR_AXIS":"6925.360","BSTAR":"0.00099570000000","PERIAPSIS":"546.160","RA_OF_ASC_NODE":"189.9578","GP_ID":"227697962","APOAPSIS":"548.290","CENTER_NAME":"EARTH","TLE_LINE2":"2 44961  53.0527 189.9578 0001538  63.7696 296.3451 15.06396163175114","SITE":"AFETR","LAUNCH_DATE":"2020-01-07","FILE":"3855017","DECAY_DATE":null,"PERIOD":"95.592","MEAN_MOTION_DDOT":"0.0000000000000","REV_AT_EPOCH":"17511","CLASSIFICATION_TYPE":"U","INCLINATION":"53.0527","TLE_LINE1":"1 44961U 20001AZ  23067.97583929  .00014579  00000-0  99570-3 0  9996","ECCENTRICITY":"0.00015380","ARG_OF_PERICENTER":"63.7696","NORAD_CAT_ID":"44961","MEAN_ELEMENT_THEORY":"SGP4","OBJECT_TYPE":"PAYLOAD","EPOCH":"2023-03-08T23:25:12.514656","EPHEMERIS_TYPE":"0","REF_FRAME":"TEME","MEAN_MOTION":"15.06396163","OBJECT_ID":"2020-001AZ","COUNTRY_CODE":"US","TIME_SYSTEM":"UTC","RCS_SIZE":"LARGE","ELEMENT_SET_NO":"999","MEAN_ANOMALY":"296.3451","OBJECT_NAME":"STARLINK-1080","MEAN_MOTION_DOT":"0.00014579"},{"SITE":"AFETR","DECAY_DATE":null,"LAUNCH_DATE":"2020-01-07","FILE":"3855077","PERIOD":"92.664","MEAN_MOTION_DDOT":"0.0000000000000","GP_ID":"227719380","RA_OF_ASC_NODE":"141.6501","APOAPSIS":"414.102","SEMIMAJOR_AXIS":"6783.214","BSTAR":"0.00666660000000","PERIAPSIS":"396.056","CENTER_NAME":"EARTH","TLE_LINE2":"2 44963  52.9666 141.6501 0013302   6.1633 353.9537 15.53994408176465","MEAN_MOTION":"15.53994408","EPHEMERIS_TYPE":"0","REF_FRAME":"TEME","COUNTRY_CODE":"US","OBJECT_ID":"2020-001BB","ELEMENT_SET_NO":"999","TIME_SYSTEM":"UTC","RCS_SIZE":"LARGE","MEAN_MOTION_DOT":"0.00466015","OBJECT_NAME":"STARLINK-1085","MEAN_ANOMALY":"353.9537","INCLINATION":"52.9666","TLE_LINE1":"1 44963U 20001BB  23067.91197137  .00466015  00000-0  66666-2 0  9999","REV_AT_EPOCH":"17646","CLASSIFICATION_TYPE":"U","ECCENTRICITY":"0.00133020","ARG_OF_PERICENTER":"6.1633","OBJECT_TYPE":"PAYLOAD","NORAD_CAT_ID":"44963","MEAN_ELEMENT_THEORY":"SGP4","EPOCH":"2023-03-08T21:53:14.326368"},{"EPHEMERIS_TYPE":"0","REF_FRAME":"TEME","MEAN_MOTION":"15.06397029","OBJECT_ID":"2020-001BC","COUNTRY_CODE":"US","TIME_SYSTEM":"UTC","RCS_SIZE":"LARGE","ELEMENT_SET_NO":"999","MEAN_ANOMALY":"271.5768","MEAN_MOTION_DOT":"-0.00001830","OBJECT_NAME":"STARLINK-1086","REV_AT_EPOCH":"17507","CLASSIFICATION_TYPE":"U","INCLINATION":"53.0495","TLE_LINE1":"1 44964U 20001BC  23067.73993420 -.00001830  00000-0 -10397-3 0  9992","ECCENTRICITY":"0.00017410","ARG_OF_PERICENTER":"88.5421","NORAD_CAT_ID":"44964","MEAN_ELEMENT_THEORY":"SGP4","OBJECT_TYPE":"PAYLOAD","EPOCH":"2023-03-08T17:45:30.314880","SITE":"AFETR","LAUNCH_DATE":"2020-01-07","FILE":"3855077","DECAY_DATE":null,"MEAN_MOTION_DDOT":"0.0000000000000","PERIOD":"95.592","SEMIMAJOR_AXIS":"6925.358","PERIAPSIS":"546.017","BSTAR":"-0.00010397000000","RA_OF_ASC_NODE":"191.0160","GP_ID":"227719627","APOAPSIS":"548.428","CENTER_NAME":"EARTH","TLE_LINE2":"2 44964  53.0495 191.0160 0001741  88.5421 271.5768 15.06397029175072"},{"MEAN_ANOMALY":"52.8571","MEAN_MOTION_DOT":"0.00074388","OBJECT_NAME":"STARLINK-1088","TIME_SYSTEM":"UTC","RCS_SIZE":"LARGE","ELEMENT_SET_NO":"999","OBJECT_ID":"2020-001BE","COUNTRY_CODE":"US","EPHEMERIS_TYPE":"0","REF_FRAME":"TEME","MEAN_MOTION":"15.09259794","EPOCH":"2023-03-08T17:14:50.925408","NORAD_CAT_ID":"44966","MEAN_ELEMENT_THEORY":"SGP4","OBJECT_TYPE":"PAYLOAD","ECCENTRICITY":"0.00015610","ARG_OF_PERICENTER":"307.2277","REV_AT_EPOCH":"17507","CLASSIFICATION_TYPE":"U","INCLINATION":"53.0520","TLE_LINE1":"1 44966U 20001BE  23067.71864497  .00074388  00000-0  45897-2 0  9991","PERIOD":"95.411","MEAN_MOTION_DDOT":"0.0000000000000","LAUNCH_DATE":"2020-01-07","FILE":"3855077","DECAY_DATE":null,"SITE":"AFETR","TLE_LINE2":"2 44966  53.0520 190.6601 0001561 307.2277  52.8571 15.09259794175079","CENTER_NAME":"EARTH","SEMIMAJOR_AXIS":"6916.598","PERIAPSIS":"537.383","BSTAR":"0.00458970000000","RA_OF_ASC_NODE":"190.6601","GP_ID":"227718382","APOAPSIS":"539.542"},{"MEAN_ELEMENT_THEORY":"SGP4","NORAD_CAT_ID":"44967","OBJECT_TYPE":"PAYLOAD","EPOCH":"2023-03-08T09:15:58.505184","REV_AT_EPOCH":"17502","CLASSIFICATION_TYPE":"U","TLE_LINE1":"1 44967U 20001BF  23067.38609381 -.00015040  00000-0 -99446-3 0  9996","INCLINATION":"53.0551","ECCENTRICITY":"0.00015970","ARG_OF_PERICENTER":"100.6935","RCS_SIZE":"LARGE","TIME_SYSTEM":"UTC","ELEMENT_SET_NO":"999","MEAN_ANOMALY":"259.4234","MEAN_MOTION_DOT":"-0.00015040","OBJECT_NAME":"STARLINK-1089","REF_FRAME":"TEME","EPHEMERIS_TYPE":"0","MEAN_MOTION":"15.06342383","OBJECT_ID":"2020-001BF","COUNTRY_CODE":"US","CENTER_NAME":"EARTH","TLE_LINE2":"2 44967  53.0551 192.6018 0001597 100.6935 259.4234 15.06342383175023","PERIAPSIS":"546.284","BSTAR":"-0.00099446000000","SEMIMAJOR_AXIS":"6925.525","APOAPSIS":"548.496","GP_ID":"227718132","RA_OF_ASC_NODE":"192.6018","FILE":"3855077","LAUNCH_DATE":"2020-01-07","DECAY_DATE":null,"MEAN_MOTION_DDOT":"0.0000000000000","PERIOD":"95.596","SITE":"AFETR"},{"PERIOD":"95.593","MEAN_MOTION_DDOT":"0.0000000000000","DECAY_DATE":null,"LAUNCH_DATE":"2020-01-07","FILE":"3855077","SITE":"AFETR","TLE_LINE2":"2 44968  53.0508 192.9192 0001931  88.8372 271.2838 15.06389814175017","CENTER_NAME":"EARTH","RA_OF_ASC_NODE":"192.9192","GP_ID":"227718882","APOAPSIS":"548.582","SEMIMAJOR_AXIS":"6925.380","BSTAR":"-0.00005409200000","PERIAPSIS":"545.907","OBJECT_NAME":"STARLINK-1090","MEAN_MOTION_DOT":"-0.00001087","MEAN_ANOMALY":"271.2838","ELEMENT_SET_NO":"999","TIME_SYSTEM":"UTC","RCS_SIZE":"LARGE","COUNTRY_CODE":"US","OBJECT_ID":"2020-001BG","MEAN_MOTION":"15.06389814","EPHEMERIS_TYPE":"0","REF_FRAME":"TEME","EPOCH":"2023-03-08T07:35:06.797760","OBJECT_TYPE":"PAYLOAD","NORAD_CAT_ID":"44968","MEAN_ELEMENT_THEORY":"SGP4","ARG_OF_PERICENTER":"88.8372","ECCENTRICITY":"0.00019310","INCLINATION":"53.0508","TLE_LINE1":"1 44968U 20001BG  23067.31605090 -.00001087  00000-0 -54092-4 0  9998","REV_AT_EPOCH":"17501","CLASSIFICATION_TYPE":"U"},{"EPOCH":"2023-03-08T09:00:02.509920","NORAD_CAT_ID":"44969","MEAN_ELEMENT_THEORY":"SGP4","OBJECT_TYPE":"PAYLOAD","ECCENTRICITY":"0.00023740","ARG_OF_PERICENTER":"97.8423","CLASSIFICATION_TYPE":"U","REV_AT_EPOCH":"17501","INCLINATION":"53.0526","TLE_LINE1":"1 44969U 20001BH  23067.37502905  .00013882  00000-0  94888-3 0  9996","MEAN_ANOMALY":"262.2836","MEAN_MOTION_DOT":"0.00013882","OBJECT_NAME":"STARLINK-1092","TIME_SYSTEM":"UTC","RCS_SIZE":"LARGE","ELEMENT_SET_NO":"999","OBJECT_ID":"2020-001BH","COUNTRY_CODE":"US","EPHEMERIS_TYPE":"0","REF_FRAME":"TEME","MEAN_MOTION":"15.06404665","TLE_LINE2":"2 44969  53.0526 192.6588 0002374  97.8423 262.2836 15.06404665175013","CENTER_NAME":"EARTH","SEMIMAJOR_AXIS":"6925.334","PERIAPSIS":"545.555","BSTAR":"0.00094888000000","GP_ID":"227719128","RA_OF_ASC_NODE":"192.6588","APOAPSIS":"548.843","MEAN_MOTION_DDOT":"0.0000000000000","PERIOD":"95.592","LAUNCH_DATE":"2020-01-07","FILE":"3855077","DECAY_DATE":null,"SITE":"AFETR"},{"OBJECT_NAME":"STARLINK-1093","MEAN_MOTION_DOT":"0.00000676","MEAN_ANOMALY":"264.3497","ELEMENT_SET_NO":"999","RCS_SIZE":"LARGE","TIME_SYSTEM":"UTC","COUNTRY_CODE":"US","OBJECT_ID":"2020-001BJ","MEAN_MOTION":"15.06398831","REF_FRAME":"TEME","EPHEMERIS_TYPE":"0","EPOCH":"2023-03-08T18:01:25.663872","OBJECT_TYPE":"PAYLOAD","MEAN_ELEMENT_THEORY":"SGP4","NORAD_CAT_ID":"44970","ARG_OF_PERICENTER":"95.7699","ECCENTRICITY":"0.00018190","TLE_LINE1":"1 44970U 20001BJ  23067.75099148  .00000676  00000-0  64274-4 0  9994","INCLINATION":"53.0510","REV_AT_EPOCH":"17506","CLASSIFICATION_TYPE":"U","PERIOD":"95.592","MEAN_MOTION_DDOT":"0.0000000000000","DECAY_DATE":null,"FILE":"3855077","LAUNCH_DATE":"2020-01-07","SITE":"AFETR","TLE_LINE2":"2 44970  53.0510 190.9633 0001819  95.7699 264.3497 15.06398831175063","CENTER_NAME":"EARTH","APOAPSIS":"548.477","RA_OF_ASC_NODE":"190.9633","GP_ID":"227717882","PERIAPSIS":"545.957","BSTAR":"0.00006427400000","SEMIMAJOR_AXIS":"6925.352"},{"APOAPSIS":"548.199","GP_ID":"227718633","RA_OF_ASC_NODE":"190.2053","BSTAR":"0.00022241000000","PERIAPSIS":"546.180","SEMIMAJOR_AXIS":"6925.325","TLE_LINE2":"2 44972  53.0532 190.2053 0001458  78.3635 281.7517 15.06407849175105","CENTER_NAME":"EARTH","SITE":"AFETR","MEAN_MOTION_DDOT":"0.0000000000000","PERIOD":"95.592","DECAY_DATE":null,"FILE":"3855077","LAUNCH_DATE":"2020-01-07","ECCENTRICITY":"0.00014580","ARG_OF_PERICENTER":"78.3635","TLE_LINE1":"1 44972U 20001BL  23067.92053787  .00003034  00000-0  22241-3 0  9992","INCLINATION":"53.0532","CLASSIFICATION_TYPE":"U","REV_AT_EPOCH":"17510","EPOCH":"2023-03-08T22:05:34.471968","OBJECT_TYPE":"PAYLOAD","MEAN_ELEMENT_THEORY":"SGP4","NORAD_CAT_ID":"44972","COUNTRY_CODE":"US","OBJECT_ID":"2020-001BL","MEAN_MOTION":"15.06407849","REF_FRAME":"TEME","EPHEMERIS_TYPE":"0","OBJECT_NAME":"STARLINK-1107","MEAN_MOTION_DOT":"0.00003034","MEAN_ANOMALY":"281.7517","ELEMENT_SET_NO":"999","RCS_SIZE":"LARGE","TIME_SYSTEM":"UTC"}];
